{
  "norad_id": 58234,
  "name": "STARLINK-30860",
  "history": [
    {
      "epoch": "2026-03-28T14:44:10.521888Z",
      "apogee_km": 484.7733972002843,
      "perigee_km": 483.4791743445876,
      "latitude_deg": 1.6878822394086272e-05,
      "longitude_deg": 130.86494445199824,
      "height_km": 484.06131291067015,
      "semi_major_axis_km": 6862.263285772436,
      "eccentricity": 9.43e-05,
      "inclination_deg": 43.0017,
      "raan_deg": 177.9407,
      "arg_perigee_deg": 255.8181,
      "mean_anomaly_deg": 104.2566,
      "mean_motion_rev_day": 15.27220331
    },
    {
      "epoch": "2026-03-29T22:07:38.587296Z",
      "apogee_km": 484.4637754778587,
      "perigee_km": 483.17235553452974,
      "latitude_deg": 3.926011041922835e-06,
      "longitude_deg": 11.323803887433465,
      "height_km": 483.8267167897997,
      "semi_major_axis_km": 6861.955065506194,
      "eccentricity": 9.41e-05,
      "inclination_deg": 43.0,
      "raan_deg": 170.5557,
      "arg_perigee_deg": 248.9043,
      "mean_anomaly_deg": 111.1708,
      "mean_motion_rev_day": 15.2732323
    },
    {
      "epoch": "2026-03-30T05:58:25.932864Z",
      "apogee_km": 484.0150434122188,
      "perigee_km": 482.6120140081084,
      "latitude_deg": -3.974258398406089e-05,
      "longitude_deg": -108.54065923875905,
      "height_km": 482.69557253485283,
      "semi_major_axis_km": 6861.450528710164,
      "eccentricity": 0.00010224,
      "inclination_deg": 43.0001,
      "raan_deg": 168.7108,
      "arg_perigee_deg": 304.1949,
      "mean_anomaly_deg": 55.8805,
      "mean_motion_rev_day": 15.27491694
    },
    {
      "epoch": "2026-03-30T13:49:10.139520Z",
      "apogee_km": 484.32864361975226,
      "perigee_km": 481.66144714842994,
      "latitude_deg": -1.6896344623539984e-05,
      "longitude_deg": 131.60536322926242,
      "height_km": 482.50883095845427,
      "semi_major_axis_km": 6861.132045384091,
      "eccentricity": 0.00019437,
      "inclination_deg": 43.002,
      "raan_deg": 166.8632,
      "arg_perigee_deg": 281.3992,
      "mean_anomaly_deg": 78.6641,
      "mean_motion_rev_day": 15.27598051
    },
    {
      "epoch": "2026-03-30T22:00:00.999936Z",
      "apogee_km": 484.24229477712834,
      "perigee_km": 481.8496630487216,
      "latitude_deg": 41.720801002052696,
      "longitude_deg": 78.58904489557283,
      "height_km": 486.9889528934161,
      "semi_major_axis_km": 6861.182978912925,
      "eccentricity": 0.00017436,
      "inclination_deg": 43.0012,
      "raan_deg": 164.9379,
      "arg_perigee_deg": 278.9796,
      "mean_anomaly_deg": 157.6268,
      "mean_motion_rev_day": 15.27581041
    },
    {
      "epoch": "2026-03-31T20:00:01.999008Z",
      "apogee_km": 484.08623367246855,
      "perigee_km": 481.90988163218117,
      "latitude_deg": 42.82787067031064,
      "longitude_deg": 111.8429627900269,
      "height_km": 487.1401117544739,
      "semi_major_axis_km": 6861.135057652325,
      "eccentricity": 0.0001586,
      "inclination_deg": 43.0007,
      "raan_deg": 159.7617,
      "arg_perigee_deg": 275.9247,
      "mean_anomaly_deg": 167.6887,
      "mean_motion_rev_day": 15.27597045
    },
    {
      "epoch": "2026-04-01T20:44:41.059104Z",
      "apogee_km": 483.5940725676992,
      "perigee_km": 482.6527076421762,
      "latitude_deg": -7.86986661653871e-06,
      "longitude_deg": 12.547244126047774,
      "height_km": 482.62125082116773,
      "semi_major_axis_km": 6861.260390104937,
      "eccentricity": 6.86e-05,
      "inclination_deg": 43.0001,
      "raan_deg": 153.9396,
      "arg_perigee_deg": 306.2237,
      "mean_anomaly_deg": 53.8551,
      "mean_motion_rev_day": 15.27555189
    },
    {
      "epoch": "2026-04-02T20:17:00.413088Z",
      "apogee_km": 483.6893397078029,
      "perigee_km": 482.3294604913044,
      "latitude_deg": 2.679963652606812e-05,
      "longitude_deg": 12.957939806797313,
      "height_km": 482.6173193423378,
      "semi_major_axis_km": 6861.146400099554,
      "eccentricity": 9.91e-05,
      "inclination_deg": 43.0031,
      "raan_deg": 148.3976,
      "arg_perigee_deg": 284.3718,
      "mean_anomaly_deg": 75.7024,
      "mean_motion_rev_day": 15.27593257
    },
    {
      "epoch": "2026-04-02T20:17:00.413952Z",
      "apogee_km": 483.6894083192683,
      "perigee_km": 482.32939187984084,
      "latitude_deg": 2.7561532262008315e-05,
      "longitude_deg": 12.957937009371689,
      "height_km": 482.61730231454885,
      "semi_major_axis_km": 6861.146400099554,
      "eccentricity": 9.911e-05,
      "inclination_deg": 43.0031,
      "raan_deg": 148.3976,
      "arg_perigee_deg": 284.3718,
      "mean_anomaly_deg": 75.7024,
      "mean_motion_rev_day": 15.27593257
    },
    {
      "epoch": "2026-04-03T11:58:33.721824Z",
      "apogee_km": 483.7614409193511,
      "perigee_km": 482.266396134205,
      "latitude_deg": -9.576973920077197e-06,
      "longitude_deg": 133.23364308986632,
      "height_km": 482.6778959155326,
      "semi_major_axis_km": 6861.150918526778,
      "eccentricity": 0.00010895,
      "inclination_deg": 42.9994,
      "raan_deg": 144.7066,
      "arg_perigee_deg": 278.6479,
      "mean_anomaly_deg": 81.4249,
      "mean_motion_rev_day": 15.27591748
    },
    {
      "epoch": "2026-04-04T11:30:56.535264Z",
      "apogee_km": 483.64384667344893,
      "perigee_km": 482.480324532512,
      "latitude_deg": -3.062221113626501e-05,
      "longitude_deg": 133.63342424157415,
      "height_km": 482.8299388931425,
      "semi_major_axis_km": 6861.19908560298,
      "eccentricity": 8.479e-05,
      "inclination_deg": 43.0004,
      "raan_deg": 139.1682,
      "arg_perigee_deg": 270.8293,
      "mean_anomaly_deg": 89.2461,
      "mean_motion_rev_day": 15.27575662
    },
    {
      "epoch": "2026-04-05T12:37:27.982848Z",
      "apogee_km": 483.5914634408018,
      "perigee_km": 483.0842632189042,
      "latitude_deg": -3.4705487057345384e-05,
      "longitude_deg": 110.06220772862748,
      "height_km": 483.01568939543,
      "semi_major_axis_km": 6861.474863329852,
      "eccentricity": 3.696e-05,
      "inclination_deg": 43.0014,
      "raan_deg": 133.2592,
      "arg_perigee_deg": 292.7587,
      "mean_anomaly_deg": 67.3225,
      "mean_motion_rev_day": 15.27483568
    },
    {
      "epoch": "2026-04-06T02:44:50.705664Z",
      "apogee_km": 483.8934637469347,
      "perigee_km": 482.2418345637907,
      "latitude_deg": -1.075336782223077e-05,
      "longitude_deg": -105.68585638113426,
      "height_km": 482.90943469239585,
      "semi_major_axis_km": 6861.204649155363,
      "eccentricity": 0.00012036,
      "inclination_deg": 43.0029,
      "raan_deg": 129.9358,
      "arg_perigee_deg": 265.49,
      "mean_anomaly_deg": 94.5814,
      "mean_motion_rev_day": 15.27573804
    },
    {
      "epoch": "2026-04-07T10:07:58.596672Z",
      "apogee_km": 483.7754789560695,
      "perigee_km": 482.34491934004745,
      "latitude_deg": -4.321481285098193e-05,
      "longitude_deg": 134.85866864578958,
      "height_km": 482.77323276872664,
      "semi_major_axis_km": 6861.197199148059,
      "eccentricity": 0.00010425,
      "inclination_deg": 43.0023,
      "raan_deg": 122.5522,
      "arg_perigee_deg": 275.1037,
      "mean_anomaly_deg": 84.9695,
      "mean_motion_rev_day": 15.27576292
    },
    {
      "epoch": "2026-04-07T17:58:45.640704Z",
      "apogee_km": 483.86545354191367,
      "perigee_km": 482.2736536214834,
      "latitude_deg": 7.702318679942866e-06,
      "longitude_deg": 14.993964939417646,
      "height_km": 482.80307654225186,
      "semi_major_axis_km": 6861.206553581698,
      "eccentricity": 0.000116,
      "inclination_deg": 43.0021,
      "raan_deg": 120.7057,
      "arg_perigee_deg": 273.1125,
      "mean_anomaly_deg": 86.9594,
      "mean_motion_rev_day": 15.27573168
    },
    {
      "epoch": "2026-04-08T08:06:09.711360Z",
      "apogee_km": 483.7894083415713,
      "perigee_km": 482.29449467161703,
      "latitude_deg": -1.4796601231064665e-05,
      "longitude_deg": 159.23921927350221,
      "height_km": 482.756328008646,
      "semi_major_axis_km": 6861.178951506594,
      "eccentricity": 0.00010894,
      "inclination_deg": 43.0021,
      "raan_deg": 117.3813,
      "arg_perigee_deg": 274.7813,
      "mean_anomaly_deg": 85.2914,
      "mean_motion_rev_day": 15.27582386
    },
    {
      "epoch": "2026-04-09T01:21:52.958880Z",
      "apogee_km": 483.77756974414024,
      "perigee_km": 482.33644455487956,
      "latitude_deg": 3.96911705814035e-05,
      "longitude_deg": -104.46274852444105,
      "height_km": 482.7974738962572,
      "semi_major_axis_km": 6861.19400714951,
      "eccentricity": 0.00010502,
      "inclination_deg": 43.0017,
      "raan_deg": 113.3184,
      "arg_perigee_deg": 272.8738,
      "mean_anomaly_deg": 87.1994,
      "mean_motion_rev_day": 15.27577358
    },
    {
      "epoch": "2026-04-10T07:10:51.108096Z",
      "apogee_km": 484.0859264640794,
      "perigee_km": 482.0187873346322,
      "latitude_deg": -1.665036258958999e-05,
      "longitude_deg": 160.0541936630949,
      "height_km": 482.7056058953563,
      "semi_major_axis_km": 6861.1893568993555,
      "eccentricity": 0.00015064,
      "inclination_deg": 43.003,
      "raan_deg": 106.3022,
      "arg_perigee_deg": 276.8841,
      "mean_anomaly_deg": 83.1839,
      "mean_motion_rev_day": 15.27578911
    },
    {
      "epoch": "2026-04-11T16:08:04.815744Z",
      "apogee_km": 485.03694152176104,
      "perigee_km": 480.84345113936433,
      "latitude_deg": 3.728972676142442e-05,
      "longitude_deg": 16.638268473790596,
      "height_km": 482.7386840065926,
      "semi_major_axis_km": 6861.077196330562,
      "eccentricity": 0.0003056,
      "inclination_deg": 43.0012,
      "raan_deg": 98.5467,
      "arg_perigee_deg": 269.4404,
      "mean_anomaly_deg": 90.6098,
      "mean_motion_rev_day": 15.27616369
    }
  ]
}